STARLINK-31992          
1 60023U 24111H   26068.23458478  .00000925  00000+0  43348-4 0  9994
2 60023  53.1600  77.7534 0000957  85.9323 274.1787 15.30191840 98973
2025-313BD              
1 67299U 25313BD  26068.62968741  .00081010  00000+0  27634-2 0  9995
2 67299  97.3970 145.2850 0007287 333.4514  26.6352 15.30002360 10838
